[{"OBJECT_NAME":"STARLINK-2537","OBJECT_ID":"2021-036AB","EPOCH":"2026-03-10T00:00:02.999808","MEAN_MOTION":15.29116481,"ECCENTRICITY":0.00018949,"INCLINATION":53.1505,"RA_OF_ASC_NODE":89.3057,"ARG_OF_PERICENTER":87.1415,"MEAN_ANOMALY":103.8325,"EPHEMERIS_TYPE":0,"CLASSIFICATION_TYPE":"U","NORAD_CAT_ID":48301,"ELEMENT_SET_NO":999,"REV_AT_EPOCH":574,"BSTAR":0.0048677656,"MEAN_MOTION_DOT":0.00141769,"MEAN_MOTION_DDOT":0},{"OBJECT_NAME":"OBJECT H","OBJECT_ID":"2025-055H","EPOCH":"2026-03-09T23:29:50.051328","MEAN_MOTION":15.30330066,"ECCENTRICITY":0.00075967,"INCLINATION":97.636,"RA_OF_ASC_NODE":211.9572,"ARG_OF_PERICENTER":140.4354,"MEAN_ANOMALY":219.7441,"EPHEMERIS_TYPE":0,"CLASSIFICATION_TYPE":"U","NORAD_CAT_ID":63298,"ELEMENT_SET_NO":999,"REV_AT_EPOCH":5423,"BSTAR":0.0015582864,"MEAN_MOTION_DOT":0.00045901,"MEAN_MOTION_DDOT":0}]
